[{"OBJECT_NAME":"STARLINK-33962","OBJECT_ID":"2025-098AA","EPOCH":"2026-03-09T21:08:05.537760","MEAN_MOTION":14.98334072,"ECCENTRICITY":0.00029044,"INCLINATION":70.0006,"RA_OF_ASC_NODE":273.8662,"ARG_OF_PERICENTER":266.7176,"MEAN_ANOMALY":93.3651,"EPHEMERIS_TYPE":0,"CLASSIFICATION_TYPE":"U","NORAD_CAT_ID":63950,"ELEMENT_SET_NO":999,"REV_AT_EPOCH":4658,"BSTAR":0.00019731083,"MEAN_MOTION_DOT":2.262e-5,"MEAN_MOTION_DDOT":0},{"OBJECT_NAME":"DELTA 1 R\/B","OBJECT_ID":"1969-009B","EPOCH":"2026-03-09T16:11:16.692864","MEAN_MOTION":11.46656953,"ECCENTRICITY":0.16317148,"INCLINATION":88.4192,"RA_OF_ASC_NODE":116.7958,"ARG_OF_PERICENTER":132.3404,"MEAN_ANOMALY":242.797,"EPHEMERIS_TYPE":0,"CLASSIFICATION_TYPE":"U","NORAD_CAT_ID":3670,"ELEMENT_SET_NO":999,"REV_AT_EPOCH":36779,"BSTAR":0.00035857765,"MEAN_MOTION_DOT":5.51e-6,"MEAN_MOTION_DDOT":0}]
